NORAD_CAT_ID,OBJECT_NAME,OBJECT_TYPE,EPOCH,MEAN_MOTION,ECCENTRICITY,INCLINATION,RA_OF_ASC_NODE,ARG_OF_PERICENTER,MEAN_ANOMALY,BSTAR,MEAN_MOTION_DOT,MEAN_MOTION_DDOT,TLE_LINE0,TLE_LINE1,TLE_LINE2,SEMIMAJOR_AXIS,PERIOD,APOGEE,PERIGEE,DECAYED
51788.0,STARLINK-3641,PAYLOAD,2024-02-15 11:54:20,15.08839062,0.0001232,53.2141,130.3399,82.9005,277.2127,0.00022423,3.282e-05,0.0,0 STARLINK-3641,1 51788U 22017W   24046.49606974  .00003282  00000-0  22423-3 0  9993,2 51788  53.2141 130.3399 0001232  82.9005 277.2127 15.08839062110212,6917.883,95.438,540.601,538.896,0.0
51788.0,STARLINK-3641,PAYLOAD,2024-02-15 15:05:06,15.08835015,0.0001571,53.2162,129.744,90.2919,269.8253,0.0013067,0.00020566,0.0,0 STARLINK-3641,1 51788U 22017W   24046.62855306  .00020566  00000-0  13067-2 0  9990,2 51788  53.2162 129.7440 0001571  90.2919 269.8253 15.08835015110239,6917.896,95.438,540.847,538.674,0.0
51788.0,STARLINK-3641,PAYLOAD,2024-02-16 11:45:07,15.08854294,0.0001489,53.2143,125.8776,90.87,269.2463,0.00074247,0.00011553,0.0,0 STARLINK-3641,1 51788U 22017W   24047.48967143  .00011553  00000-0  74247-3 0  9992,2 51788  53.2143 125.8776 0001489  90.8700 269.2463 15.08854294110360,6917.837,95.437,540.732,538.672,0.0
51788.0,STARLINK-3641,PAYLOAD,2024-02-17 11:35:54,15.08845026,0.0001554,53.2174,121.4142,96.1329,263.984,0.0003249,4.887e-05,0.0,0 STARLINK-3641,1 51788U 22017W   24048.48327456  .00004887  00000-0  32490-3 0  9996,2 51788  53.2174 121.4142 0001554  96.1329 263.9840 15.08845026110512,6917.865,95.437,540.805,538.655,0.0
51788.0,STARLINK-3641,PAYLOAD,2024-02-17 14:46:41,15.0884182,0.0001564,53.2171,120.8201,94.1333,265.9838,0.00019902,2.881e-05,0.0,0 STARLINK-3641,1 51788U 22017W   24048.61575526  .00002881  00000-0  19902-3 0  9999,2 51788  53.2171 120.8201 0001564  94.1333 265.9838 15.08841820110531,6917.875,95.437,540.822,538.658,0.0
51788.0,STARLINK-3641,PAYLOAD,2024-02-18 11:26:41,15.08846165,0.0001514,53.2157,116.9589,90.0147,270.1019,0.00021761,3.178e-05,0.0,0 STARLINK-3641,1 51788U 22017W   24049.47687456  .00003178  00000-0  21761-3 0  9996,2 51788  53.2157 116.9589 0001514  90.0147 270.1019 15.08846165110663,6917.862,95.437,540.774,538.679,0.0
51788.0,STARLINK-3641,PAYLOAD,2024-02-18 20:59:00,15.08839615,0.0001519,53.2159,115.174,90.1009,270.0157,7.9641e-05,9.8e-06,0.0,0 STARLINK-3641,1 51788U 22017W   24049.87431612  .00000980  00000-0  79641-4 0  9990,2 51788  53.2159 115.1740 0001519  90.1009 270.0157 15.08839615110729,6917.882,95.438,540.797,538.696,0.0
51788.0,STARLINK-3641,PAYLOAD,2024-02-19 11:17:29,15.08837225,0.0001618,53.2166,112.5,100.4591,259.6583,4.5685e-05,4.39e-06,0.0,0 STARLINK-3641,1 51788U 22017W   24050.47048008  .00000439  00000-0  45685-4 0  9991,2 51788  53.2166 112.5000 0001618 100.4591 259.6583 15.08837225110819,6917.889,95.438,540.873,538.635,0.0
51788.0,STARLINK-3641,PAYLOAD,2024-02-19 20:49:48,15.08839286,0.0001566,53.2174,110.7148,95.4757,264.6413,9.2677e-06,-1.41e-06,0.0,0 STARLINK-3641,1 51788U 22017W   24050.86791830 -.00000141  00000-0  92677-5 0  9997,2 51788  53.2174 110.7148 0001566  95.4757 264.6413 15.08839286110873,6917.883,95.438,540.831,538.664,0.0
51788.0,STARLINK-3641,PAYLOAD,2024-02-20 11:08:17,15.08836272,0.000164,53.2175,108.0357,89.2217,270.8963,6.0716e-05,6.78e-06,0.0,0 STARLINK-3641,1 51788U 22017W   24051.46408651  .00000678  00000-0  60716-4 0  9992,2 51788  53.2175 108.0357 0001640  89.2217 270.8963 15.08836272110962,6917.892,95.438,540.891,538.622,0.0
51788.0,STARLINK-3641,PAYLOAD,2024-02-20 20:40:35,15.08844529,0.0001537,53.2178,106.2539,90.7214,269.3955,3.8237e-05,3.21e-06,0.0,0 STARLINK-3641,1 51788U 22017W   24051.86152131  .00000321  00000-0  38237-4 0  9993,2 51788  53.2178 106.2539 0001537  90.7214 269.3955 15.08844529111022,6917.867,95.437,540.795,538.668,0.0
51788.0,STARLINK-3641,PAYLOAD,2024-02-21 10:59:00,15.08889443,0.0001562,53.218,103.5774,75.4465,284.67,0.00049076,7.542e-05,0.0,0 STARLINK-3641,1 51788U 22017W   24052.45764173  .00007542  00000-0  49076-3 0  9998,2 51788  53.2180 103.5774 0001562  75.4465 284.6700 15.08889443111114,6917.729,95.434,540.675,538.514,0.0
51788.0,STARLINK-3641,PAYLOAD,2024-02-21 20:31:19,15.08876433,0.0001478,53.2189,101.7929,83.7508,276.3652,0.00034454,5.205e-05,0.0,0 STARLINK-3641,1 51788U 22017W   24052.85508374  .00005205  00000-0  34454-3 0  9999,2 51788  53.2189 101.7929 0001478  83.7508 276.3652 15.08876433111176,6917.769,95.435,540.656,538.612,0.0
51788.0,STARLINK-3641,PAYLOAD,2024-02-22 02:52:54,15.08830409,0.0001885,53.2171,100.6037,89.3143,270.8065,3.3484e-05,2.45e-06,0.0,0 STARLINK-3641,1 51788U 22017W   24053.12008086  .00000245  00000-0  33484-4 0  9997,2 51788  53.2171 100.6037 0001885  89.3143 270.8065 15.08830409111219,6917.91,95.438,541.079,538.471,0.0
51788.0,STARLINK-3641,PAYLOAD,2024-02-22 12:25:13,15.08836126,0.0001351,53.2163,98.8175,97.4153,262.6992,-4.2912e-06,-3.56e-06,0.0,0 STARLINK-3641,1 51788U 22017W   24053.51751914 -.00000356  00000-0 -42912-5 0  9997,2 51788  53.2163  98.8175 0001351  97.4153 262.6992 15.08836126111276,6917.892,95.438,540.692,538.823,0.0
51788.0,STARLINK-3641,PAYLOAD,2024-02-22 20:22:09,15.08830833,0.0001459,53.2152,97.3303,99.1307,260.985,-0.00018852,-3.286e-05,0.0,0 STARLINK-3641,1 51788U 22017W   24053.84871603 -.00003286  00000-0 -18852-3 0  9990,2 51788  53.2152  97.3303 0001459  99.1307 260.9850 15.08830833111329,6917.908,95.438,540.783,538.764,0.0
51788.0,STARLINK-3641,PAYLOAD,2024-02-23 09:05:14,15.08837227,0.0001384,53.2161,94.9514,94.6395,265.4755,-2.3098e-05,-6.55e-06,0.0,0 STARLINK-3641,1 51788U 22017W   24054.37864115 -.00000655  00000-0 -23098-4 0  9995,2 51788  53.2161  94.9514 0001384  94.6395 265.4755 15.08837227111407,6917.889,95.438,540.711,538.796,0.0
51788.0,STARLINK-3641,PAYLOAD,2024-02-23 20:12:55,15.08855971,0.0001363,53.2163,92.8694,98.2387,261.876,-0.00030327,-5.113e-05,0.0,0 STARLINK-3641,1 51788U 22017W   24054.84231012 -.00005113  00000-0 -30327-3 0  9997,2 51788  53.2163  92.8694 0001363  98.2387 261.8760 15.08855971111472,6917.832,95.437,540.639,538.754,0.0
51788.0,STARLINK-3641,PAYLOAD,2024-02-24 02:34:29,15.08825908,0.0001515,53.2153,91.6803,99.857,260.2593,0.00026445,3.922e-05,0.0,0 STARLINK-3641,1 51788U 22017W   24055.10728487  .00003922  00000-0  26445-3 0  9994,2 51788  53.2153  91.6803 0001515  99.8570 260.2593 15.08825908111519,6917.923,95.438,540.837,538.74,0.0
51788.0,STARLINK-3641,PAYLOAD,2024-02-24 12:06:48,15.08837378,0.0001543,53.2151,89.8967,93.8493,266.2675,0.00028488,4.248e-05,0.0,0 STARLINK-3641,1 51788U 22017W   24055.50472310  .00004248  00000-0  28488-3 0  9990,2 51788  53.2151  89.8967 0001543  93.8493 266.2675 15.08837378111573,6917.888,95.438,540.821,538.686,0.0
51788.0,STARLINK-3641,PAYLOAD,2024-02-25 08:46:48,15.08844889,0.0001502,53.2161,86.0315,92.7719,267.3445,0.00035699,5.399e-05,0.0,0 STARLINK-3641,1 51788U 22017W   24056.36584359  .00005399  00000-0  35699-3 0  9992,2 51788  53.2161  86.0315 0001502  92.7719 267.3445 15.08844889111701,6917.865,95.437,540.77,538.691,0.0
51788.0,STARLINK-3641,PAYLOAD,2024-02-25 18:19:07,15.08843976,0.0001617,53.216,84.2472,92.0744,268.0434,0.0001893,2.726e-05,0.0,0 STARLINK-3641,1 51788U 22017W   24056.76328354  .00002726  00000-0  18930-3 0  9997,2 51788  53.2160  84.2472 0001617  92.0744 268.0434 15.08843976111760,6917.868,95.437,540.852,538.615,0.0
51788.0,STARLINK-3641,PAYLOAD,2024-02-26 08:37:35,15.08846745,0.000169,53.2167,81.572,92.5732,267.5453,0.00016638,2.361e-05,0.0,0 STARLINK-3641,1 51788U 22017W   24057.35944153  .00002361  00000-0  16638-3 0  9992,2 51788  53.2167  81.5720 0001690  92.5732 267.5453 15.08846745111858,6917.86,95.437,540.894,538.556,0.0
51788.0,STARLINK-3641,PAYLOAD,2024-02-27 05:17:37,15.08834911,0.0001767,53.2174,77.7051,93.6123,266.5071,-8.2732e-05,-1.604e-05,0.0,0 STARLINK-3641,1 51788U 22017W   24058.22056776 -.00001604  00000-0 -82732-4 0  9994,2 51788  53.2174  77.7051 0001767  93.6123 266.5071 15.08834911111982,6917.896,95.438,540.983,538.539,0.0
51788.0,STARLINK-3641,PAYLOAD,2024-02-27 06:53:00,15.08832587,0.0001707,53.2173,77.4084,93.4685,266.6502,-0.00010211,-1.912e-05,0.0,0 STARLINK-3641,1 51788U 22017W   24058.28680905 -.00001912  00000-0 -10211-3 0  9991,2 51788  53.2173  77.4084 0001707  93.4685 266.6502 15.08832587111997,6917.903,95.438,540.949,538.587,0.0
51788.0,STARLINK-3641,PAYLOAD,2024-02-27 18:00:42,15.08836711,0.000168,53.2184,75.3258,91.1449,268.9736,3.5662e-05,2.8e-06,0.0,0 STARLINK-3641,1 51788U 22017W   24058.75049166  .00000280  00000-0  35662-4 0  9994,2 51788  53.2184  75.3258 0001680  91.1449 268.9736 15.08836711112068,6917.89,95.438,540.918,538.593,0.0
51788.0,STARLINK-3641,PAYLOAD,2024-02-28 09:54:33,15.08847315,0.0001855,53.2179,72.3501,99.4905,260.6297,8.1458e-05,1.009e-05,0.0,0 STARLINK-3641,1 51788U 22017W   24059.41288427  .00001009  00000-0  81458-4 0  9997,2 51788  53.2179  72.3501 0001855  99.4905 260.6297 15.08847315112166,6917.858,95.437,541.006,538.44,0.0
51788.0,STARLINK-3641,PAYLOAD,2024-02-28 17:51:28,15.08846793,0.0001594,53.2173,70.8629,87.1328,272.9846,5.2837e-05,5.53e-06,0.0,0 STARLINK-3641,1 51788U 22017W   24059.74408471  .00000553  00000-0  52837-4 0  9998,2 51788  53.2173  70.8629 0001594  87.1328 272.9846 15.08846793112218,6917.86,95.437,540.827,538.622,0.0
51788.0,STARLINK-3641,PAYLOAD,2024-02-29 04:59:11,15.08834589,0.0001701,53.2176,68.7829,86.1718,273.9468,0.00010963,1.457e-05,0.0,0 STARLINK-3641,1 51788U 22017W   24060.20777423  .00001457  00000-0  10963-3 0  9994,2 51788  53.2176  68.7829 0001701  86.1718 273.9468 15.08834589112289,6917.897,95.438,540.939,538.585,0.0
51788.0,STARLINK-3641,PAYLOAD,2024-02-29 08:09:57,15.08834571,0.0001649,53.2173,68.1899,91.711,268.4071,0.00012909,1.767e-05,0.0,0 STARLINK-3641,1 51788U 22017W   24060.34025346  .00001767  00000-0  12909-3 0  9995,2 51788  53.2173  68.1899 0001649  91.7110 268.4071 15.08834571112309,6917.897,95.438,540.903,538.621,0.0
